[{"OBJECT_NAME":"KUIPER-00245","OBJECT_ID":"2025-301T","EPOCH":"2026-03-09T08:04:13.428192","MEAN_MOTION":14.79898157,"ECCENTRICITY":4.283e-5,"INCLINATION":51.9025,"RA_OF_ASC_NODE":84.6907,"ARG_OF_PERICENTER":68.118,"MEAN_ANOMALY":291.9828,"EPHEMERIS_TYPE":0,"CLASSIFICATION_TYPE":"U","NORAD_CAT_ID":67150,"ELEMENT_SET_NO":999,"REV_AT_EPOCH":1343,"BSTAR":0.0005764726,"MEAN_MOTION_DOT":4.173e-5,"MEAN_MOTION_DDOT":0},{"OBJECT_NAME":"NOAA 16 DEB","OBJECT_ID":"2000-055CH","EPOCH":"2026-03-08T23:14:05.839296","MEAN_MOTION":14.8199625,"ECCENTRICITY":0.00272924,"INCLINATION":98.8096,"RA_OF_ASC_NODE":249.8066,"ARG_OF_PERICENTER":262.6687,"MEAN_ANOMALY":97.1421,"EPHEMERIS_TYPE":0,"CLASSIFICATION_TYPE":"U","NORAD_CAT_ID":41150,"ELEMENT_SET_NO":999,"REV_AT_EPOCH":53750,"BSTAR":0.0055111324,"MEAN_MOTION_DOT":0.0004421,"MEAN_MOTION_DDOT":0}]
